      2.10          N: GNSS NAV DATA                        RINEX VERSION / TYPE
fic2rin                                 07/16/2018 00:09:04 PGM / RUN BY / DATE
                                                            END OF HEADER
18 18  7 15 18  0  0.0 3.398628905416e-05 4.661160346586e-12 0.000000000000e+00
    1.050000000000e+02-1.051250000000e+02 5.186287458261e-09 1.174431835091e+00
   -5.647540092468e-06 1.480810844805e-02 3.825873136520e-06 5.153642789841e+03
    6.480000000000e+04-3.874301910400e-07 2.611477441558e+00-6.332993507385e-08
    9.504632493980e-01 3.050937500000e+02 1.321643482019e+00-8.807866883010e-09
   -3.478716331070e-10 1.000000000000e+00 2.010000000000e+03 0.000000000000e+00
    2.400000000000e+00 0.000000000000e+00-6.519258022308e-09 1.050000000000e+02
    5.760600000000e+04 4.000000000000e+00
27 18  7 15 18  0  0.0 3.607892431319e-04-2.273736754432e-12 0.000000000000e+00
    6.900000000000e+01 9.321875000000e+01 4.460542942375e-09-2.681190638969e+00
    4.714354872704e-06 5.996254854836e-03 3.298744559288e-06 5.153686925888e+03
    6.480000000000e+04-3.725290298462e-09 1.603107119618e+00-9.685754776001e-08
    9.773992709571e-01 3.272812500000e+02 4.512451553948e-01-8.201770208079e-09
    3.782300405137e-10 1.000000000000e+00 2.010000000000e+03 0.000000000000e+00
    2.400000000000e+00 0.000000000000e+00 1.862645149231e-09 6.900000000000e+01
    5.760600000000e+04 4.000000000000e+00
20 18  7 15 18  0  0.0 5.124420858920e-04 6.821210263297e-13 0.000000000000e+00
    6.000000000000e+01-8.081250000000e+01 4.936991359792e-09 1.319840632980e+00
   -4.520639777184e-06 3.999977954663e-03 1.107156276703e-05 5.153678392410e+03
    6.480000000000e+04 5.774199962616e-08-2.692239917319e+00-5.401670932770e-08
    9.289501715319e-01 1.485937500000e+02 2.048701822688e+00-8.213199255573e-09
   -6.428839215530e-11 1.000000000000e+00 2.010000000000e+03 0.000000000000e+00
    2.400000000000e+00 0.000000000000e+00-8.381903171539e-09 6.000000000000e+01
    5.760600000000e+04 4.000000000000e+00
28 18  7 15 18  0  0.0 7.314085960388e-04 2.614797267597e-12 0.000000000000e+00
    6.300000000000e+01 9.543750000000e+01 3.636580049585e-09-1.774254186591e+00
    5.254521965981e-06 1.944957184605e-02 1.267716288567e-05 5.153690366745e+03
    6.480000000000e+04 1.378357410431e-07 6.464075294454e-01 4.395842552185e-07
    9.856667286556e-01 1.453125000000e+02-1.517485195727e+00-7.449953177596e-09
   -2.964409193827e-11 1.000000000000e+00 2.010000000000e+03 0.000000000000e+00
    2.400000000000e+00 0.000000000000e+00-1.117587089539e-08 6.300000000000e+01
    5.760600000000e+04 4.000000000000e+00
32 18  7 15 18  0  0.0-4.744892939925e-04 8.071765478235e-12 0.000000000000e+00
    1.660000000000e+02 4.321875000000e+01 4.766269962847e-09-1.977059129957e+00
    2.339482307434e-06 2.262677531689e-03 7.081776857376e-06 5.153677427292e+03
    6.480000000000e+04-8.195638656616e-08-1.542268846397e+00-6.705522537231e-08
    9.565679553406e-01 2.435625000000e+02-2.522611929850e+00-8.107123408517e-09
    4.339466470482e-10 1.000000000000e+00 2.010000000000e+03 0.000000000000e+00
    2.400000000000e+00 0.000000000000e+00 4.656612873077e-10 1.660000000000e+02
    5.760600000000e+04 4.000000000000e+00
16 18  7 15 17 59 44.0 1.764902845025e-05-1.477928890381e-12 0.000000000000e+00
    5.000000000000e+00 9.484375000000e+01 3.707654438690e-09-1.723693015281e+00
    4.572793841362e-06 9.975915774703e-03 1.107342541218e-05 5.153666315079e+03
    6.478400000000e+04 9.685754776001e-08 6.421989540499e-01-1.229345798492e-07
    9.867866421845e-01 1.767500000000e+02 5.241365467224e-01-7.497455156244e-09
    1.160762636137e-10 1.000000000000e+00 2.010000000000e+03 0.000000000000e+00
    2.400000000000e+00 0.000000000000e+00-1.071020960808e-08 5.000000000000e+00
    5.820600000000e+04 4.000000000000e+00
24 18  7 15 17 59 44.0-5.257874727249e-05-4.547473508865e-13 0.000000000000e+00
    1.000000000000e+00-2.693750000000e+01 5.260219109240e-09 1.734001893236e+00
   -1.465901732445e-06 7.007500971667e-03 5.997717380524e-06 5.153632066727e+03
    6.478400000000e+04-8.568167686462e-08-5.303071805312e-01 6.705522537231e-08
    9.412451407182e-01 2.525937500000e+02 5.374781752777e-01-8.497496811993e-09
   -4.353752779850e-10 1.000000000000e+00 2.010000000000e+03 0.000000000000e+00
    2.400000000000e+00 0.000000000000e+00 2.793967723846e-09 1.000000000000e+00
    5.952600000000e+04 4.000000000000e+00
32 18  7 15 17 59 44.0-4.744902253151e-04 8.071765478235e-12 0.000000000000e+00
    2.000000000000e+00 4.321875000000e+01 4.766269962847e-09-1.979392948039e+00
    2.339482307434e-06 2.262676716782e-03 7.081776857376e-06 5.153677431107e+03
    6.478400000000e+04-8.195638656616e-08-1.542268727900e+00-6.705522537231e-08
    9.565679304710e-01 2.435625000000e+02-2.522611868407e+00-8.107123408517e-09
    4.339466470482e-10 1.000000000000e+00 2.010000000000e+03 0.000000000000e+00
    2.400000000000e+00 0.000000000000e+00 4.656612873077e-10 2.000000000000e+00
    5.952600000000e+04 4.000000000000e+00
18 18  7 15 17 59 44.0 3.398256376386e-05 4.547473508865e-12 0.000000000000e+00
    1.300000000000e+01-1.051250000000e+02 5.186287458261e-09 1.172097992140e+00
   -5.647540092468e-06 1.480810798239e-02 3.825873136520e-06 5.153642797470e+03
    6.478400000000e+04-3.874301910400e-07 2.611477596627e+00-6.332993507385e-08
    9.504632552497e-01 3.050937500000e+02 1.321643537610e+00-8.807866883010e-09
   -3.478716331070e-10 1.000000000000e+00 2.010000000000e+03 0.000000000000e+00
    2.400000000000e+00 0.000000000000e+00-6.519258022308e-09 1.300000000000e+01
    6.357600000000e+04 4.000000000000e+00
24 18  7 15 19 59 44.0-5.258247256279e-05-4.547473508865e-13 0.000000000000e+00
    3.000000000000e+00-2.340625000000e+01 5.171643991159e-09 2.784295223883e+00
   -1.229345798492e-06 7.007939624600e-03 6.228685379028e-06 5.153630704880e+03
    7.198400000000e+04-5.587935447693e-09-5.303681593455e-01-7.450580596924e-08
    9.412428644176e-01 2.489687500000e+02 5.373968677537e-01-8.340704566681e-09
   -3.885876148053e-10 1.000000000000e+00 2.010000000000e+03 0.000000000000e+00
    2.400000000000e+00 0.000000000000e+00 2.793967723846e-09 3.000000000000e+00
    6.480600000000e+04 4.000000000000e+00
32 18  7 15 19 59 44.0-4.744324833155e-04 8.071765478235e-12 0.000000000000e+00
    3.000000000000e+00 3.537500000000e+01 4.841273087028e-09-9.287124049194e-01
    1.732259988785e-06 2.262705005705e-03 7.234513759613e-06 5.153679563522e+03
    7.198400000000e+04 6.146728992462e-08-1.542326837932e+00-3.725290298462e-09
    9.565703238050e-01 2.412187500000e+02-2.523112865184e+00-8.205341785421e-09
    3.335853237391e-10 1.000000000000e+00 2.010000000000e+03 0.000000000000e+00
    2.400000000000e+00 0.000000000000e+00 4.656612873077e-10 3.000000000000e+00
    6.480600000000e+04 4.000000000000e+00
18 18  7 15 19 59 44.0 3.401562571526e-05 4.547473508865e-12 0.000000000000e+00
    1.400000000000e+01-1.050000000000e+02 4.935562728856e-09 2.222207643182e+00
   -5.725771188736e-06 1.480778551195e-02 2.937391400337e-06 5.153645465851e+03
    7.198400000000e+04 1.024454832077e-07 2.611415704952e+00-2.328306436539e-07
    9.504633020630e-01 3.153125000000e+02 1.321737114628e+00-8.291773957096e-09
   -2.971552348511e-10 1.000000000000e+00 2.010000000000e+03 0.000000000000e+00
    2.400000000000e+00 0.000000000000e+00-6.519258022308e-09 1.400000000000e+01
    6.480600000000e+04 4.000000000000e+00
16 18  7 15 19 59 44.0 1.763831824064e-05-1.477928890381e-12 0.000000000000e+00
    3.000000000000e+01 7.200000000000e+01 3.574434603834e-09-6.732111496037e-01
    3.971159458160e-06 9.977043722756e-03 1.094862818718e-05 5.153672454834e+03
    7.198400000000e+04 1.713633537292e-07 6.421451903475e-01 1.098960638046e-07
    9.867863715447e-01 1.808437500000e+02 5.238313600673e-01-7.687463070837e-09
    1.071473202588e-12 1.000000000000e+00 2.010000000000e+03 0.000000000000e+00
    2.400000000000e+00 0.000000000000e+00-1.071020960808e-08 3.000000000000e+01
    6.480600000000e+04 4.000000000000e+00
 1 18  7 15 20  0  0.0-6.610807031393e-05-3.865352482535e-12 0.000000000000e+00
    6.200000000000e+01-1.090000000000e+02 4.547689429519e-09 2.473571957812e+00
   -5.725771188736e-06 8.012295933440e-03 4.256144165993e-06 5.153669221878e+03
    7.200000000000e+04-1.508742570877e-07 2.659625163766e+00-1.434236764908e-07
    9.720956077525e-01 3.036250000000e+02 6.602430859575e-01-8.162482857317e-09
   -2.675111429129e-10 1.000000000000e+00 2.010000000000e+03 0.000000000000e+00
    2.400000000000e+00 0.000000000000e+00 5.587935447693e-09 6.200000000000e+01
    6.480600000000e+04 4.000000000000e+00
 2 18  7 15 20  0  0.0 5.691265687346e-05-1.068656274583e-11 0.000000000000e+00
    6.200000000000e+01-1.087187500000e+02 5.084140346281e-09 2.796904876989e+00
   -5.554407835007e-06 1.793617103249e-02 2.063810825348e-06 5.153775531769e+03
    7.200000000000e+04 1.378357410431e-07 2.597485127522e+00-2.142041921616e-07
    9.511275999966e-01 3.305000000000e+02-1.844805365423e+00-8.353562245112e-09
   -3.553719455251e-10 1.000000000000e+00 2.010000000000e+03 0.000000000000e+00
    2.400000000000e+00 0.000000000000e+00-2.048909664154e-08 6.200000000000e+01
    6.480600000000e+04 4.000000000000e+00
 5 18  7 15 20  0  0.0-4.563014954329e-06 5.684341886081e-13 0.000000000000e+00
    4.200000000000e+01-8.287500000000e+01 4.555546899671e-09-8.141655667496e-01
   -4.332512617111e-06 5.492528784089e-03 1.245923340321e-05 5.153750843048e+03
    7.200000000000e+04 1.173466444016e-07-2.603702741482e+00 9.126961231232e-08
    9.483894810972e-01 1.320937500000e+02 6.312743426531e-01-8.011405135752e-09
    4.643050544549e-12 1.000000000000e+00 2.010000000000e+03 0.000000000000e+00
    2.400000000000e+00 0.000000000000e+00-1.117587089539e-08 4.200000000000e+01
    6.480600000000e+04 4.000000000000e+00
